name,representImage,intro,address,longitude,latitude,openTime,phone,email,headCityName,cityName,groupTypeName
人生書局,http://cloud.culture.tw/e_new_upload/cms/image/A0/B0/C0/D24/E141/F25/c177a5fb-2ef2-4a6d-855f-41343ee1f797.jpg,位在鹽埕區的新樂街上，看守著台灣戰後的歷史。早年人生書局只賣自己出版的書籍，是個相當「冷門」的書店。如今賣佛經、參考書以及文具，但不管如何，其存在其實就已經是意義。,新樂街145號,120.281814,22.620168,一～日｜09:00 - 21:00,,,,高雄市  鹽埕區,實體書店
一本書店,http://cloud.culture.tw/e_new_upload/cms/image/A0/B0/C0/D23/E170/F361/7d5109e4-8325-4611-881f-b2122f5717cc.jpg,位於台中文創園區對面的一本書店，與許多手作文創產業合作，在店內會舉辦教學課程。時常舉辦新詩朗讀會，搭配很有口碑的餐點，常會有客慕名而來；有時在綠川市集擺攤自家的輕食與書籍。書籍則以文學為主。,復興路3段348巷2-2號1樓,120.679643,24.132733,三～日｜12:00 - 17:00,,,,臺中市  南區,實體書店
書集喜室,http://cloud.culture.tw/e_new_upload/cms/image/A0/B0/C0/D15/E182/F610/bac79d1a-4a00-4d5d-841d-0f8fe802326c.jpg,"隱身在鹿港巷弄中的書集喜室，是一間二手書店，原本一棟快要廢棄的日治時期老屋，被店主買下，經過修復成為了現在的模樣，踏進書集喜室，彷彿時光倒流般時間都靜止了，老宅散發著濃濃的書卷氣味，帶領著你一起進入書香世界。


圖片擷取自不是觀光景點的書舖茶屋:書集喜室臉書粉絲專頁

本資料由文化部委託台灣閱讀推進協會建構，建立日期為107年5月15日。",彰化縣鹿港鎮杉行街20號,120.435059,24.057213,週三至週日11:00-17:30,,,,彰化縣  鹿港鎮,實體書店
樸食小舖,http://cloud.culture.tw/e_new_upload/cms/image/A0/B0/C0/D25/E214/F579/658adabb-f5db-43b1-8750-6ded5693503d.JPG,"樸食小舖，我們是「市集裡的書店」!

我們原先在新竹市開有機複合餐廳，後來移居苗栗公館鄉間，展開兩人六貓四狗的新生活。

我們跟著季節研發果醬，以手工製作老麵貝果、饅頭包子、年糕和水餃，也帶三四個木箱裝著食農、生活、設計與自然書籍去市集擺攤。

樸食小舖是「市集裡的書店」，一家沒有大門、跟著市集作息、任何人都可以來翻書看書買書的書店。最開心的是，因為沒有大門，反而看到許多農友、不分年齡的消費者，都會駐足書箱前面，享受閱讀。",新竹市光復路二段101號(清大成功湖邊),120.969102,24.806942,每月第一周和第三周的周六，早上九點到下午兩點,,nicole571105@gmail.com,竹蜻蜓綠市集,新竹市  新竹市,實體書店
小陽。日栽書屋,http://cloud.culture.tw/e_new_upload/cms/image/A0/B0/C0/D16/E131/F858/f15f08af-dff9-426c-a3ff-10df31663d22.jpg,"一點勇氣將小陽。春日子更明確蛻變成小陽。日栽書屋，走過那段和伙伴一起的充滿春分生命力的日子，延續小陽發光發熱的精神，期許將帶給屏東更多關於書、關於藝文、關於文化的事。

圖片擷取自書店裡的影像詩

本資料由文化部委託台灣閱讀推進協會建構，建立日期為107年5月16日。",屏東市中山路清營巷1號,120.501205,22.67797,週四至週日 14:00-20:00,,ssunville@hotmail.com,,屏東縣  屏東市,實體書店
世界書局,http://cloud.culture.tw/e_new_upload/cms/image/A0/B0/C0/D23/E152/F896/954660ff-2bf5-49af-9a83-cdfb028a8271.jpg,以其創辦人特有的「紅屋」屹立於重慶南路，是重慶南路書街風景中極具特色的一家書店。過去只販售自家出版品的世界書局，現今也販售特選的簡體字書籍。對於喜好中國古籍的人士來說，世界書局仍是相當重要的一家書店。,重慶南路一段99號,121.507818,25.039382,一～六｜10:00 - 19:00，日休,(02)23110183,,,臺北市  中正區,實體書店
人文書舍,http://cloud.culture.tw/e_new_upload/cms/image/A0/B0/C0/D23/E146/F641/3e17dd0e-aeb4-4cce-a6f4-045ea10eefe7.jpg,創始人是隨著國民政府來台的老兵，喜歡逛舊書攤的他退伍後便投入舊書行列，在牯嶺街的長巷中開設了人文書舍。書店如今由女婿打理，但人文書舍依然維持舊有的風格，持續見證著牯嶺街的舊書歷史。,牯嶺街62-2號,121.507818,25.039382,一～日11:00-18:00,(02)23214540,,,臺北市  中正區,實體書店
青鳥書店,http://cloud.culture.tw/e_new_upload/cms/image/A0/B0/C0/D26/E173/F276/6a7eca27-f6c3-4837-8555-4ae2267fd8bf.jpg,"建一間屬於自由的書店
不是為了獨立、不是為了隔絕，是為了自由；自由才可以追尋幸福，這是青鳥的本質。

在二元框架的世界裡，獨立像是一種相對於不獨立，主流與非主流的論述，自由的基礎若能在框限中跳躍著，掙脫既定思考，讓書店能自在產生獨立、連鎖、複製、風格、媒體的未來想像。",台北市中正區八德路一段一號,121.559834,25.091075,一-日 10:00-21:00,(02)2341-8865,bleubook2016@gmail.com,,臺北市,實體書店
松林書局,http://cloud.culture.tw/e_new_upload/cms/image/A0/B0/C0/D23/E154/F194/76610250-6474-4ca0-bdcf-ac1b601a3384.jpg,據說是當年牯嶺街舊書攤中第一個有名號的店，也是目前牯嶺街僅存的舊書店當中最老字號的。堆疊滿屋的舊書自成一套風景，蔡家父子兩代的經營，更讓松林充滿和書一般高的故事。,牯嶺街17號,121.507818,25.039382,不定期營業,(02)23510758,,,臺北市  中正區,實體書店
三民書局,http://cloud.culture.tw/e_new_upload/cms/image/A0/B0/C0/D23/E151/F623/811d0479-e6d4-464b-8daf-df28280f0427.jpg,在重慶南路上已有超過半個世紀的歷史，可說是重慶南路書街的重要代表店之一。三民以所謂的「圖書館式」書店為經營模式，將各類各樣的圖書陳列於架上供讀者自由選擇。在書街沒落的今日，三民書局儼然成為重慶南路實體書店的最醒目指標。,重慶南路一段61號,121.507818,25.039382,一～日｜ 9:00 - 22:00,(02)23617511,,,臺北市  中正區,實體書店
聯經書房‧上海書店,http://cloud.culture.tw/e_new_upload/cms/image/A0/B0/C0/D23/E160/F509/5b332f13-b2cc-4910-bc37-6315b084c1bc.jpg,為聯經出版公司位於新生南路上的門市，不過並不侷限於自家出版品。一樓聯經書房的書籍以人文社科類為主，地下室的上海書店則是銷售簡體字書籍。除台北外，聯經在台中等地亦設有門市書店。,新生南路三段94號1樓,121.542957,25.034544,11:00-22:00,(02)23620308(聯經#201，上海#202),,,臺北市  大安區,實體書店
流浪ing旅遊書店,http://cloud.culture.tw/e_new_upload/cms/image/A0/B0/C0/D13/E184/F443/f9507046-9ff5-4063-bd3f-0c24e4fb4009.jpg,"流浪ing是一間以旅遊為主題的書店，各式各樣的旅遊書籍，分門別類地放置在書櫃上每一個適當的空間裡。在這裡，即將要去旅行的人，可以找到相關的書籍，來做行前規劃；旅行結束回來的人，可以在書名熟悉的書籍裡，和回憶產生共鳴；無法實地去旅行的人，可以在嚮往國家的書籍裡，藉由閱讀來精神遊歷。流浪ing
不只是一間書店，更是一個聚會分享的好地方。每個週休二日，或是平日特定的時間，這裡都會舉辦「旅遊分享會」。讓已經把旅遊當成信仰的旅人，不論是在一段長時間裡，遊走在不同國家與城市間的「歇遊」；或是到一個國家的某個地方check in 長住，盡情融入和體驗當地文化和生活的「住遊」；還是在一個異國城市裡找個暫時的家，並以此為據點短暫而深入去探索和瞭解這座城市的「居遊」，都可以將自己的旅遊經驗，分享給對旅遊有興趣的每個人。

圖片擷取自臺北旅遊網

本資料由文化部委託台灣閱讀推進協會建構，建立日期為107年5月13日。",台北市大安區溫州街74巷3弄2號1樓,121.542957,25.034544,週二至週日13:00 - 21:00,(02)23622378,nomading2013@gmail.com,,臺北市  大安區,實體書店
水準書局,http://cloud.culture.tw/e_new_upload/cms/image/A0/B0/C0/D23/E152/F52/8092cfcf-c0fe-42cd-94c6-e7931df6b3ed.jpg,從早期的店址搬遷到現在的浦城街，開業已超過40年，因價格便宜而吸引許多年輕學子光顧。店內書籍種類豐富，店主熱情與人交談的講價方式，是水準書局的一大特色。,浦城街1號,121.542957,25.034544,一～日｜12:00 - 22:00,(02)23645726,,,臺北市  大安區,實體書店
河邊生活Liv'in Riverside,http://cloud.culture.tw/e_new_upload/cms/image/A0/B0/C0/D15/E193/F171/8ac72592-c4e1-4efa-8fc1-7b679290842e.jpg,【河邊生活】是一個推廣台灣文化的複合式平台。我們透過結合書店、藝廊與文化講座的方式，經由閱讀、舉辦工藝展覽和文化講座，創造都會居民與在地工藝、社區、部落產生連結與互動的場域。我們將生活工藝產品融入現代都會消費社會的生活脈絡中，讓生活在都市的人們可以從熟悉的日常生活體驗中，逐漸體察自身的生命經驗並感受工藝與文化內蘊的深刻感動。,台北市大安區新生南路三段16-1號,121.542957,25.034544,週一~週日 14:00-20:00,(02)2368-8825,livinriverside@gmail.com,,臺北市  大安區,實體書店
紀州庵文學森林 文創書店,http://cloud.culture.tw/e_new_upload/cms/image/A0/B0/C0/D13/E164/F91/b247e801-edfb-41d4-94d5-428fcee6730d.jpg,"由位居城南的紀州庵輻射出去，涵括鄰近的同安街、廈門街、金門街、牯嶺街，遠至師大與臺大學區，是臺灣戰後文學發展史上舉足輕重的場域。包括《臺灣新生報》「橋」副刊、藍星詩社、《文學雜誌》、《現代文學》等媒體刊物；中國文藝協會等藝文機構；洪範、爾雅、遠流等出版社，曾以此為據點。作家王文興、余光中、林海音、林良等人曾駐居於城南這一帶。2011年，臺北市政府文化局因城南豐厚的文學歷史，寄予「紀州庵」成為臺北市第一個以文學為主題的藝文空間，在古蹟旁建立之新館，自6月起，委託專業文學團隊──財團法人台灣文學發展基金會經營，以「紀州庵文學森林」為名，進行各式文學的展演與推廣活動，2011年12月24日正式開館。
文創書店讓文學的多種可能性在此發生，這個小舖子容納了文學書籍與文創商品，是可以彼此共享創意的複合式文創書店。文學書籍配合展覽，以主題式呈現。兼售獨立出版之各類書籍與相關作品。文創商品以各式文學與親子相關文創設計為主。

圖片擷取自紀州庵文學森林臉書粉絲專頁

本資料由文化部委託台灣閱讀推進協會建構，建立日期為107年5月13日。",台北市中正區同安街107號,121.507818,25.039382,週二至四、週日：10:00-18:00。週五、六：10:00-21:00,(02)23687577,service@kishuan.org.tw,,臺北市  中正區,實體書店
Mangasick,http://cloud.culture.tw/e_new_upload/cms/image/A0/B0/C0/D9/E174/F454/7c29f263-8923-47c9-878a-d34a5c41f25d.JPG,"Mangasick是2013年於台灣台北市公館開業的次文化漫畫書店，提供書籍內閱服務，亦販售精選的漫畫、zine及其周邊，接受少量代訂。
內閱區的中文／中譯漫畫藏書以青年漫畫為主；日語原文漫畫藏書囊括1960至2010年代各類型非主流作品，包括漫畫、畫冊、雜誌、zine、評論書。販售區可購得台、日、中、港四地的另類漫畫、zine、週邊商品。引進日文刊物之餘，我們也開始將台灣的作品引介給日本次文化書店。
2015年8月起增設展覽空間，每月舉辦展覽。不定期以Mangasick名義推出台日兩地創作者的出版品。

圖片擷取自Mangasick官方部落格

本資料由文化部委託台灣閱讀推進協會建構，建立日期為107年5月9日。",台北市中正區羅斯福路三段244巷10弄2號B1,121.507818,25.039382,週四至週一：14:00-22:00，每週二、三公休（詳細營業時間請依店家公告為主）,(02)2369 9969,mangasickmanga@gmail.com,,臺北市  中正區,實體書店
校園書房,http://cloud.culture.tw/e_new_upload/cms/image/A0/B0/C0/D21/E166/F375/47bdbf88-852e-45f4-9298-1afd04751855.jpg,是台大地區歷史悠久的書店，以基督教書籍及其相關週邊為主要銷售產品。除一樓書籍區外，二樓有流行文具禮品，地下室則為生活家俬館。,羅斯福路三段301號B1,121.542957,25.034544,星期一至六10:30-21:50，星期日13:00-21:00,(02)23691115,,,臺北市  大安區,實體書店
阿維的書店,http://cloud.culture.tw/e_new_upload/cms/image/A0/B0/C0/D23/E154/F736/830e00ea-a766-440c-aa71-b0ab6f59085f.jpg,位於懷寧街上，是重慶南路一帶少數的二手書店。以販售大專二手教科書為主，也兼有一些一般人文、藝術類書籍。店主個性爽朗，喜與人交談，反倒是重慶南路的書店少見的景象。,懷寧街36號8樓,121.507818,25.039382,週二至週日 11:00-20:30,(02)23754388,,,臺北市  中正區,實體書店
書香城,http://cloud.culture.tw/e_new_upload/cms/image/A0/B0/C0/D23/E156/F6/bdca5d7f-5e93-459d-80b2-74c28993b9f4.jpg,原是廈門街的「瑩橋書店」，其後遷至牯嶺街才更名為書香城，可說是目前牯嶺街一帶最具規模，也比較屬現代經營模式的二手書店。推拉移動式書櫃是書香城的特色，它讓書籍有較多存放位置，書籍也能有明確分類，店內空間因此寬敞而明亮許多。,牯嶺街64號,121.507818,25.039382,一～日｜10:00 - 20:00,(02)23928850,,,臺北市  中正區,實體書店
百城堂古書店,http://cloud.culture.tw/e_new_upload/cms/image/A0/B0/C0/D23/E153/F320/94c82803-58b3-420d-9dc1-445e777dc2d5.jpg,原位於光華商場內，僅一坪半的店面空間卻是台灣史料的蒐羅重地。商場拆除後，百城堂成為唯一留駐新光華商場的古書店，但終究與數位新天地格格不入，如今搬遷至八德路，依然以櫥窗展示著其所擁有的古董珍本。,八德路一段82巷9弄4號2樓,121.507818,25.039382,大部分時間不營業,(02)23968620,,,臺北市  中正區,實體書店
93巷人文空間,http://cloud.culture.tw/e_new_upload/cms/image/A0/B0/C0/D18/E154/F601/6e0f2a9e-ccdc-4222-994e-773a4c6e78cf.jpg,"遠見．天下文化事業群 專屬空間 / 學．書．食．飲．花

一個不大的空間，有書、有咖啡、有知識份子進出、有人文氣息瀰漫、有進步觀念激盪，隱身於台北的一條小巷。

松江路上的九十三巷，提供了一個可能。我們結合了精緻的書本、誘人的咖啡及點心，以及多姿多采的人文活動，提供一個可以靜思、閱讀、談話、以及學習的場所。

期許著，更多有形和無形的人文空間，在更多城市，尤其是在人們的心靈裡，出現！",松江路93巷2號,121.524686,25.072631,週一至週六 7:45-21:00 | 週日和國定假日 7:45-18:00 | 每月最後一個周日公休,(02)2509-5085轉753、754,encounter@cwgv.com.tw,遠見‧天下文化事業群,臺北市  中山區,實體書店
朋丁 pon ding,http://cloud.culture.tw/e_new_upload/cms/image/A0/B0/C0/D13/E171/F382/77220325-ab93-4f11-b3d5-4f5dac7b3458.jpg,"一個由台灣、印尼，日本三個朋友共同透過編輯概念、與各路人馬合作，出產各式形體與物件的計畫空間。

圖片擷取自朋丁 pon ding臉書粉絲專頁

本資料由文化部委託台灣閱讀推進協會建構，建立日期為107年5月13日。",台北市中山區中山北路一段53巷6號,121.524686,25.072631,11:00 - 20:00（每月最後一個星期一公休）,(02)25377281,hello@pon-ding.com,,臺北市  中山區,實體書店
左岸十號,http://cloud.culture.tw/e_new_upload/cms/image/A0/B0/C0/D24/E155/F895/b32bba70-b8d1-4ec0-a68b-48e3f4415690.jpg,是一家位於八里地區的書店。店內提供詩集、身心靈、文學、教育等書種，店外風景雅致，並提供簡單的咖啡與輕食，是八里地區閱讀的一個好去處。,龍米路一段356巷10號,121.429611,25.160568,平日｜13:00 - 19:00，假日｜11:00 - 19:00，二、三休,(02)26186186,,,新北市  八里區(八里鄉),實體書店
水牛書店（台北店）,http://cloud.culture.tw/e_new_upload/cms/image/A0/B0/C0/D11/E193/F49/65c1f9da-882c-4a9e-b2fd-fe47512b2744.JPG,http://www.buffalo1966.tw/,瑞安街224號1樓,121.542957,25.034544,週二 ~ 日 / 10:30- 18:30 週一公休,(02)2707-7003,act@bufbook.com.tw,,臺北市  大安區,實體書店
信義書局,http://cloud.culture.tw/e_new_upload/cms/image/A0/B0/C0/D23/E154/F951/04d31ed6-093a-4ce3-92a0-3d5156bcaa62.jpg,位於復興南路，1977年創業於中國書城，店主興趣廣泛，而以個人品味挑選店內藝術人文叢書，加上對新知的追求而著重雜誌的陳列。二十餘年前並在出版社擔任總編輯，多年來並以書店為據點從事公益活動，將善心人士捐贈的舊書、日用品分送偏鄉及泰北華人學校。更因愛好書法，結合書畫家促進臺日民間文化交流。夫妻二人並致力於泰北地區華人文教活動，推廣書法及兒童中華經典讀經教育。,復興南路二段173號,121.542957,25.034544,一～日｜10:30 - 21:30,(02)27072970,,,臺北市  大安區,實體書店
閱樂書店,http://cloud.culture.tw/e_new_upload/cms/image/A0/B0/C0/D13/E154/F675/22ba6ffd-39ac-4a41-ba0a-9fbdb869c35d.jpg,"閱樂書店是這座城市最奇幻的書店。建於1954年，原為松山菸場內位於製菸工廠南側的育嬰室，代表了早期工業時代重視員工福利的精神，是戰後臺灣省政府財政廳公賣局時期的作品，因營造的承商、材料等體系傳承，建築沿用日本風格。2001年被登錄為歷史建築，2004年為配合大巨蛋興建，育嬰室建築被解體後遷至目前的生態池畔復建。2013年成為夢田文創的戲劇《巷弄裡的那家書店》的主場景「閱樂書店」，並於拍攝後實地營運。2016年，閱樂邀請到文化人張鐵志擔任總顧問，重新開幕。現在這裡是書店、咖啡館，也是藝文展演空間，一個孕育思想與創作的場所，a birthplace of ideas。

圖片擷取自閱樂書店臉書粉絲專頁

本資料由文化部委託台灣閱讀推進協會建構，建立日期為107年5月13日。",台北市信義區光復南路133號（松菸文創園區內）,121.544833,25.048305,09:00-21:00,(02)27491527,yueyue.service@gmail.com,,臺北市  松山區,實體書店
桑格設計書店,http://cloud.culture.tw/e_new_upload/cms/image/A0/B0/C0/D23/E155/F402/72b817c5-50ae-4a14-b51b-7f73d29ee4bc.jpg,桑格是頗負盛名的設計書類專賣店，營業迄今已逾30年。店內擺賣著各式歐、美、日的工業、商業設計書，同時也有色彩、工藝、攝影、動畫、插畫、建築等豐富類型，亦可在網路上查詢訂購。,復興北路15號14樓之4（1417室）,121.544833,25.048305,一～五｜09:00 - 19:00，六～日｜14:00 - 19:00,(02)27773020,,,臺北市  松山區,實體書店
阿福的書店,http://cloud.culture.tw/e_new_upload/cms/image/A0/B0/C0/D18/E180/F938/e9b621eb-cee7-451f-b23c-dcba68eed162.jpg,"原本是前店主福爸為了推廣社區閱讀而在自宅騎樓擺個小書攤，因緣際會下接觸到兒童繪本，讓福爸有了舉辦親子共讀讀書會、讓家長陪伴孩子閱讀的念頭，因而開了「阿福的書店」。
書店內展售的書籍大多以兒童繪本為主，有專屬親子讀書會使用的讀書室，更培訓故事媽媽到國小和孩子分享閱讀，希望讓孩子可以愛上書本、愛上文字的美好。
福爸於2014年2月16日因心肌梗塞辭世後，目前書店由福媽及兩個孩子共同經營，堅持將福爸推廣閱讀的精神延續下去。

圖片擷取自書店裡的影像詩

本資料由文化部委託台灣閱讀推進協會建構，建立日期為107年7月18日。",新北市蘆洲區中正路233號1樓,121.47153,25.086891,週一至週六09:00-21:00（12:30-13:30休息一小時，週二營業時間12:00-21:00）,(02)2847-2609,afubkstore@yahoo.com.tw,,新北市  蘆洲區(蘆洲市),實體書店
左轉有書,http://cloud.culture.tw/e_new_upload/cms/image/A0/B0/C0/D15/E165/F964/657cd778-dead-47c3-9d04-f04cddd35f4b.JPG,左轉文化承繼開業六年的慕哲咖啡，除了週週對談、辯論，關注公共議題的沙龍講座，增設「左轉有書」書店，地下沙龍也提供租借。期許透過閱讀與沙龍的推動，成為凝聚公民意識的平台。,台北市中正區鎮江街 3-1 號,121.507818,25.039382,週二~週日11:00~18:00 (週一公休),(02)33221096,,,臺北市  中正區,實體書店
公共冊所,http://cloud.culture.tw/e_new_upload/cms/image/A0/B0/C0/D23/E151/F856/c05f7b70-c986-49c4-9787-16d170a69474.jpg,公共冊所在各樣活動的辦理上均十分投入，年輕的店主人是個音樂創作人，認為一群人想做些甚麼，擁有一個聚集與理念交流的空間是相當重要的事。店內二手書以社會科學為偏好，此外也販售黑膠唱片、文創及小農產品等。,泰順街24號B1,121.542957,25.034544,一～日｜16:00 - 22:00，二休,(02)33652328,,,臺北市  大安區,實體書店
臺灣商務印書館,http://cloud.culture.tw/e_new_upload/cms/image/A0/B0/C0/D24/E156/F413/bbb09fbe-562e-4035-9519-a8392c57cb00.jpg,是台灣老字號的出版社，位於重慶南路雲五大樓的商務書店已經超過一甲子以上的歲月。近年經歷了都市更新的紛擾之後，主要門市遷至新生南路的「商務十九人文讀境」，重南門市則遷移到新店區。,民權路108-3號5樓,121.520247,24.978433,一～日｜9:00 - 18:00，例假日休,(02)86673712,,,新北市  新店區(新店市),實體書店
或者書店,http://cloud.culture.tw/e_new_upload/cms/image/A0/B0/C0/D6/E170/F379/dbb089f0-ec79-4460-8eb7-e4503c52d081.jpg,"或者書店位於竹北新瓦屋客家文化園區內，以親子共讀、友善土地、多元族群的理念，導入專業選書、選品、選食，引領讀者進入閱讀的多元世界，從閱讀想像力到體驗，分享閱讀的幸福，實踐生活五官六感全面向。以書店型態展現文化軟實力，作為世代文化連結的橋樑。
書店二樓為生產者與消費者相遇的健康廚房，提供符合健康養生概念的蔬食餐飲。

圖片擷取自或者書店臉書粉絲專頁

本資料由文化部委託台灣閱讀推進協會建構，建立日期為107年7月6日。",文興路一段123號,121.023094,24.821766,10:30-21:00，每月第二個週二公休,(03)550-5069,orbook123@gmail.com,,新竹縣  竹北市,實體書店
貓頭鷹人文,http://cloud.culture.tw/e_new_upload/cms/image/A0/B0/C0/D24/E160/F413/45e240ee-31a8-40f9-85ff-a34c58a0031c.jpg,位於新竹市學府路，緊鄰交大、竹中學區。店主人師承竹南蛇窯，鍾愛陶藝，經常舉辦各類型藝文講座與讀書分享會，特別是陶藝、書法、茶藝等領域。,東區學府路70號,120.969102,24.806942,二、四｜14:30 - 18:00,(03)5723870,,,新竹市  新竹市,實體書店
藍鵲書房,http://cloud.culture.tw/e_new_upload/cms/image/A0/B0/C0/D24/E161/F65/39b9baf1-32a0-4ea5-bc5c-bac7ac561a9d.jpg,"台灣藍鵲為群聚家族型鳥類，長大後的成鳥，都會回巢協助原生家族照顧幼鳥，而有『巢邊幫手制』的美譽。我們期許""藍鵲書房”善盡自己的責任 成為與人共好共享的好鄰居，並成為社區居民一起閱讀、共同交流的溫暖平台。",中正路76號,121.055063,24.701468,五～日｜10:00 - 18:00,(03)5805988,,,新竹縣  北埔鄉,實體書店
朵朵森林繪本屋,http://cloud.culture.tw/e_new_upload/cms/image/A0/B0/C0/D24/E160/F827/ac2d34c7-a1c5-4091-8892-d4c1a9822239.jpg,位於竹北的朵朵森林繪本屋，書籍種類以繪本童書為主，並提供親子共讀、手作體驗、繪本插畫創作等活動，店內也不定期展出國內外繪本作品，讓這裡除成為友善親子空間之外，還是認識繪本的基地。,嘉豐六路一段132號,121.023094,24.821766,五～三｜10:00 - 18:00，四｜10:00 - 20:00，二休,(03)6670998,,,新竹縣  竹北市,實體書店
萬葉集書店,http://cloud.culture.tw/e_new_upload/cms/image/A0/B0/C0/D6/E163/F879/e3fcab51-7ad3-4169-9db3-9c511025ee2f.jpg,"萬葉集書店是日語教材專門書店，店內書籍多選自國內出版社出版之書籍，不限於暢銷書或新書，亦有部分原文書籍並可協助代訂。此外亦設有韓文專區，史地專區、文學與傳統文化書籍專區且數量陸續增加中。

圖片擷取自萬葉集書店臉書粉絲專頁

本資料由文化部委託台灣閱讀推進協會建構，建立日期為107年7月6日。",嘉興路277巷9號,121.023094,24.821766,14:00-18:00，週三19:00-21:00，週五10:00-12:00，每週日公休,(03)668-5010,moinikka@pie.com.tw,,新竹縣  竹北市,實體書店
雨樵懶人書店,http://cloud.culture.tw/e_new_upload/cms/image/A0/B0/C0/D12/E154/F15/82fbaf6f-b7a1-4833-b4de-e31e98d296f0.jpg,"雨樵懶人書店店主是一位醫師，書店的誕生是來自於醫師與病人的約定，並且在因緣際會之下來到花蓮，開始了這位醫師經營獨立書店的旅途，書店主人希望打造的氛圍就如同店名一般，希望來到書店的民眾都能夠在舒舒服服，慵懶的氣氛下閱讀，並且把他們當成朋友對談與問候。
書店內主要呈現文學與兒童繪本等兩大類的書籍，也致力於藝文活動的推廣，每月都會舉辦不同的講座、新書發表會等等的內容，也積極地邀請北、西部的作家、藝術家來到這裡，在花蓮與民眾進行交流。

圖片擷取自雨樵懶人書店臉書粉絲專頁

本資料由文化部委託台灣閱讀推進協會建構，建立日期為107年6月12日。",光復街130號2樓,121.59184,23.977088,10:00-18:00，每週二公休,(03)8330721,,,花蓮縣  花蓮市,實體書店
豐田の冊所：村子裡的公益書店,http://cloud.culture.tw/e_new_upload/cms/image/A0/B0/C0/D23/E182/F638/10133218-c11f-44c8-967f-1fcd17eb3f23.jpg,豐田村，日治時期是花蓮三大移民村之一，現有多棟日式建築做為歷史建物被保留。多年前鄰近的東華大學師生團隊率先於當地設立「五味屋」，以二手物品買賣的方式輔導當地孩童參與社區事務。2015年則開設由志工與當地孩童一起經營的公益書店，包含二手書與新書少許，並於一樓隔出兒童專屬閱讀室，是花蓮木瓜溪以南的首家書店。,豐裡村民權街7號,121.602986,23.904306,六、日｜09:30 - 16:30,(03)8650187,,,花蓮縣  壽豐鄉,實體書店
黑潮書店,http://cloud.culture.tw/e_new_upload/cms/image/A0/B0/C0/D5/E174/F733/c763658e-0900-4486-91db-bea9cc6c9814.jpg,"烏石港遊客中心二樓原展示空間，目前范特喜微創文化以「黑潮書店」的型態重新開放，空間的利用企圖以書店之閱覽區、開放空間，以及服務區為骨架，服務地方文化社造及深度旅遊的相乘。

圖片擷取自黑潮書店臉書粉絲專頁

本資料由文化部委託台灣閱讀推進協會建構，建立日期為107年7月5日。",港墘路60號2樓,121.836197,24.870829,13:00-17:30，每週三公休,(03)9773150,fantasykuroshio@gmail.com,,宜蘭縣  頭城鎮,實體書店
春陽號漁港小書房,http://cloud.culture.tw/e_new_upload/cms/image/A0/B0/C0/D23/E182/F5/b2ff97a2-0c4b-4153-a2eb-348f6c3cc92d.jpg,"位於南方澳漁港邊一間小小的二手書店。目前房已出版了《海海人生──南方澳媳婦的漁港見聞手記》一書，並參與《南風澳地方誌》的編輯工作。

空間名符其實的「小」，雖藏書量不多。但在地主題相關的出版品，文學、生態、藝術、旅遊……等相關書籍都有，希望經南方澳這個極具特色的地方。",漁港路49號,121.812772,24.613395,平日｜11:00 - 17:00，不定休,(03)9971256,,,宜蘭縣  蘇澳鎮,實體書店
仰望書房,http://cloud.culture.tw/e_new_upload/cms/image/A0/B0/C0/D5/E162/F996/940bd5e5-8897-4c8f-bffe-0e20b95f15f3.jpg,"台灣第一家將主題聚焦於天文的獨立書店，但書店內展示的主要不是書，而是星星與夢想，除了天文、大氣科學、地球科學等相關主題書，也賣觀星用品、模型等天文商品。
而原本在科博館擔任解說員的店主也會不定期在書屋室內外舉辦各式天文、科普活動，不只是讓天文同好有個能相互交流的場所，同時也歡迎對天文感到好奇的民眾一起仰望星空之美。

圖片擷取自仰望書房臉書粉絲專頁

本資料由文化部委託台灣閱讀推進協會建構，建立日期為107年7月5日。",英士路140號,120.666303,24.156164,週三至週日14:00-22:00,(04)2202-9380,,,臺中市  北區,實體書店
樹合苑,http://cloud.culture.tw/e_new_upload/cms/image/A0/B0/C0/D14/E144/F556/c5d81cc8-2410-4767-bcda-f2249a327015.jpg,"樹合苑是一個舊屋綠改造的空間，一個生產者與消費者相遇的場域，一個「生活」的地方…
樹合苑內的「樹池書坡」裡，不止有書，還有細活巧思的創意，我們的書不是向書商購買，也不是二手書；我們向「友善書業合作社」購書，同時合樸社群的朋友們，推薦自己最喜歡的書，而每一本書都有一個QR Code，掃描進去就會發現驚喜。
在樹池書坡，我們不只有紙本的書，我們還規劃了「真人書」、「星期五書聯」等活動，只要是加入細活村民都可以「借人」，一起來參與社群活動。

圖片擷取自樹合苑臉書粉絲專頁

本資料由文化部委託台灣閱讀推進協會建構，建立日期為107年5月14日。",台中市北區中清路一段101號,120.666303,24.156164,週三至週日10:00-18:00,(04)22025600,coffeetribe.hope@gmail.com,,臺中市  北區,實體書店
大同書店,http://cloud.culture.tw/e_new_upload/cms/image/A0/B0/C0/D23/E171/F91/46dfebc7-8929-4f31-9dcd-3c6951a7ef0e.jpg,位於台中市中區，是日治時期台中火車站一帶書店的僅存者。第一代的店主人從日本人手上買下這家書店，如今則交由第二代經營。大同書店，可說是台灣圖書事業以及台中市中區雙重繁榮與衰退的最直接見證。,平等街57號,120.649709,24.149768,一～日｜10:00 - 19:00，例假日休,(04)22223947,,,臺中市  中區,實體書店
時空研究書苑,http://cloud.culture.tw/e_new_upload/cms/image/A0/B0/C0/D23/E173/F581/8dfc65ba-e7f0-4a48-a23d-fd8dbdd1063c.jpg,時空研究書苑是由一對有科學背景的夫妻開設，店內擺設簡單，空間多用於舉辦講座課程、音樂會。店內牆面不定期更換由老闆的藝術家朋友所創作的繪畫作品。,崇德路一段 579號8樓之3,120.666303,24.156164,依臉書粉絲專頁公告為主,(04)22350195,,,臺中市  北區,實體書店
左西人文空間,http://cloud.culture.tw/e_new_upload/cms/image/A0/B0/C0/D23/E172/F512/ebf440ca-9ca9-4978-9de2-269afe454d9b.jpg,原在台中西屯區，之後搬遷至南屯黎明新村附近，是一家以身心靈為主題的書店。店內除書籍販售，也有相關的課程、工作坊以及新書發表等活動。,文心一路396號（近大業路黎明路口）,120.616507,24.116220,一～六｜13:00 - 21:00，日｜10:00 - 18:00，三休,(04)22513456,,,臺中市  南屯區,實體書店
寄風冊店,http://cloud.culture.tw/e_new_upload/cms/image/A0/B0/C0/D14/E134/F484/eff24731-6b6f-4697-93cd-e50c3b37e5cb.jpg,"位於台中清水眷村文化園區內的「寄風冊店」不同於一般商業型書店，也非時下熱門的獨立書店，主要是希望推動眷村文化保存，以展示海線文史資料、旅遊、文學等相關書籍，成為民眾了解「臺中清水眷村文化園區」的平台，並在活化的園區空間內進行紀錄影片播放、藝術家進駐及引進地方社團自發性的參與。因此「寄風冊店」是個不斷成長的動態空間，不僅是提供外來遊客一個認識在地生活的小書店，也將成為當地住民休憩交流的空間。


圖片擷取自清水_寄風冊店臉書粉絲專頁

本資料由文化部委託台灣閱讀推進協會建構，建立日期為107年5月14日。",台中市清水區中社路54號,121.036341,24.844961,08:00-17:00,(04)23011382,junyanlin30@gmail.com,,新竹縣  新埔鎮,實體書店
熊與貓咖啡書房,http://cloud.culture.tw/e_new_upload/cms/image/A0/B0/C0/D14/E155/F517/a64c79a2-dfcf-4991-86e0-1dfcc166422c.jpg,"台中城南，霧峰的人文客廳，旅人的歇腳驛站，溫馨舒服的好所在，可以各自擁有一小方天地的共同工作空間。歡迎各方朋友來走逛書店，索取在地藝文資訊，也歡迎點杯飲料上2F圖書室找個自在的閱讀角落，待一個下午。
熊與貓以在地文藝復興為己任，策辦各種活動之餘，經營一家藝文小書店，新書及簽名書不二價，持續蒐羅簽名版好書，壯大書櫃中。

圖片擷取自熊與貓咖啡書房臉書粉絲專頁

本資料由文化部委託台灣閱讀推進協會建構，建立日期為107年5月14日。",台中市霧峰區蘭生街43號1樓,120.73499,24.044294,週六、週日13:00-19:00,(04)23304049,dechun@ms36.hinet.net,,臺中市  霧峰區(霧峰鄉),實體書店
自己的房間,http://cloud.culture.tw/e_new_upload/cms/image/A0/B0/C0/D15/E172/F378/045ae1a7-0447-4227-af92-cd28b8e82b6b.jpg,"自己的房間是全台中第一家性別主題書店，在2009年進駐忠信市場，長期透過書籍、座談及表演等，為性邊緣身份者及性別議題進行戰鬥。它包羅了來自各個性別族群的客人和資源，不管是來看書或者聊天、交朋友、參加活動，談論時事議題等等，提供一個讓人們靜下來思考、交流的生活空間。

圖片擷取自生命力新聞

本資料由文化部委託台灣閱讀推進協會建構，建立日期為107年5月15日。",台中市西區五權西路一段71巷3弄1號,120.664047,24.150957,不定期開放，開放時間將於臉書粉絲專頁進行公告,(04)23755031,room@thusbook.com.tw,,臺中市  西區,實體書店
南方書店,http://cloud.culture.tw/e_new_upload/cms/image/A0/B0/C0/D24/E161/F814/b98e86a8-58bd-4614-bb6b-df5458cd8731.jpg,開業數十載，原址緊鄰定光寺廟地，數年前遷址，只離彰化火車站幾步之遙。目前已經是第二代經營，店主用心選書，熱絡待客，店內熟客絡繹不絕。走訪南方，除了飽覽店內書籍，不妨與店主攀談，聆聽精彩的南方故事。,三民路9-1號,120.549437,24.07862,一～日｜09:30 - 22:00，不定期休,(04)7222672,,,彰化縣  彰化市,實體書店
勇氣書房Courage Bookshop,http://cloud.culture.tw/e_new_upload/cms/image/A0/B0/C0/D27/E224/F846/906ecb97-db1c-48cd-bf10-80db0b209042.jpg,位處嘉義，陳列書籍以旅行、繪本、建築、飲食、文學為主。空間明亮几淨，店主並在擺設上發揮巧思，如在飲食類書籍前置有鍋具等器皿，與選書主題扣合。店內也提供手作餐點與飲品。,嘉義文化創意產業園區K棟2樓,120.453822,23.481019,週三13:00-18:00；週四至週五13:00-20:00；週六日13:00-21:00,(05)2165358,,,嘉義市  嘉義市,實體書店
仁偉書局,http://cloud.culture.tw/e_new_upload/cms/image/A0/B0/C0/D6/E180/F275/d03da18c-57eb-4ef1-b0bf-ab15b1555748.jpg,"位於嘉義民雄將近40年歷史的仁偉書局，目前由返鄉的第二代接手主理，除了堅持不關閉書區之外，更導入新的經營思維，讓印象中在地以販賣文具為主的傳統書局有了不一樣的風景，同時往提供人情味和傳遞美好及重要事物的目標邁進。

圖片擷取自仁偉書局臉書粉絲專頁。

本資料由文化部委託台灣閱讀推進協會建構，建立日期為107年7月6日。",建國路三段177號,120.44041,23.520357,09:00-22:00，週日14:00-22:00,(05)221-2430,t2206061@gmail.com,,嘉義縣  民雄鄉,實體書店
書旅拾光 Bobooks,http://cloud.culture.tw/e_new_upload/cms/image/A0/B0/C0/D16/E110/F351/9e683d1d-511a-40af-8df1-5a1ee83e3a1c.jpg,"1F- 書旅拾光咖啡書屋（書旅拾光舖）
2F- bobooks背包客棧（安博機構）
是身體休息的空間，也是心靈沉澱的時間，伴隨著書、咖啡、時光的味道，這是每個旅人和我們編織的故事。
「存在」是書旅拾光與bobooks的核心理念，希望用書本的溫度喚起老屋的生命力，每個角落都有著落，等著旅人拾起的那本書，或隨意地翻翻幾頁，或許安安靜靜地細細品味，在窗邊依偎，或者斜躺在床緣，書會串起每一次的旅行時光，旅行中翻起的那些書將引領著心靈，而豐富人生。

圖片擷取自書旅拾光 & Bobooks臉書粉絲專頁

本資料由文化部委託台灣閱讀推進協會建構，建立日期為107年5月16日。",嘉義市西區中正路597號,120.453822,23.481019,12:00-20:00,(05)2290159,bobooks597@gmail.com,,嘉義市  嘉義市,實體書店
島呼冊店,http://cloud.culture.tw/e_new_upload/cms/image/A0/B0/C0/D16/E113/F859/1ddaea92-2146-446d-8932-30d907e1ec2c.jpg,"用豆腐親近土地，用閱讀貼近邊緣。乍看店名的一頭霧水，只要用台語唸出便會一掃而空。「島呼」＋「冊」＝豆腐＋書──店內不只賣書，也賣豆類製品。
島呼冊店的書可借可買，不分新舊，當客人喜歡上一本書，可以支付書籍的原價將書帶回家，看完拿回店裡歸還則退還押金；若沒有將書還回店裡，就當作是客人買了那本書。書便可以不斷的流通，讓有價值的文字有更多被看到的機會。

圖片擷取自島呼冊店臉書粉絲專頁

本資料由文化部委託台灣閱讀推進協會建構，建立日期為107年5月16日。",嘉義市西區北興街86號,120.453822,23.481019,14:00-21:00,(05)2311031,,,嘉義市  嘉義市,實體書店
雲海二手書店,http://cloud.culture.tw/e_new_upload/cms/image/A0/B0/C0/D23/E175/F878/f3f947ab-fa94-4ca1-9b4a-1716bb1fc5d2.jpg,擁有五萬冊書籍，藏有豐富的文學類書籍和早期絕版雜誌。店的空間十分典雅，並特別設置由店主人蒐集的古玩所妝點的童書區，歡迎孩子們前來享受閱讀的樂趣。,南門路243-2號,120.204963,22.990709,一～日｜10:00 - 21:00,(06)2149666,,,臺南市  中西區,實體書店
烏邦圖書店,http://cloud.culture.tw/e_new_upload/cms/image/A0/B0/C0/D22/E143/F963/de5be32e-1fb2-4678-8fd5-37fe1b77bb78.jpg,"「Ubuntu」是非洲語。有人翻譯成「樂於分享」，也有人翻譯為「我在因我們同在」，但因無法精確的表達原涵意，故有「Ubuntu」美到無法翻譯的說法。我們特別喜歡「我在因我們同在」，它有種生活中我與他人密不可分的意思，這種態度也是烏邦圖書店想傳遞的理念。我們在台南安平運河旁成立烏邦圖書店，是因為這個樹木枝椏低垂，涼風徐徐吹拂的恬靜氛圍環境，能夠讓人靜下心來好好的享受讀書的樂趣。希望書店的成立能提升社區生活文化，也為社區再造盡一份心力。

坐落於河畔靜巷的烏邦圖書店，盼望來者可以在此安放自我，閱讀世界，乘著咖啡與茶香放飛心神，品著甜美療癒生活。在烏邦圖，你我都在同一種美好裡。",環河街129巷27號2樓,120.204963,22.990709,08:30-20:30，週二公休,(06)222-6919,ubuntu.bookcafe@gmail.com,均曼生活文化股份有限公司,臺南市  中西區,實體書店
唐恩書店,http://cloud.culture.tw/e_new_upload/cms/image/A0/B0/C0/D5/E145/F366/8ca3b5b7-bee4-4b76-86c4-ee2bf12f1157.jpg,"位於台南市區聚集多間特色小店的衛民街70巷內，是間專營科普、生物醫學、哲學、及歷史類新書還有火柴盒小汽車銷售的書店，並不定期舉辦讀書會及各類社群聚會。

圖片擷取自唐恩Down House粉絲專頁

本資料由文化部委託台灣閱讀推進協會建構，建立日期為107年7月5日。",衛民街70巷28號,120.204963,22.990709,週一至週五11:00-23:00，週六、日11:00-19:00,(06)222-7767,,,臺南市  中西區,實體書店
艸祭Book Inn,http://cloud.culture.tw/e_new_upload/cms/image/A0/B0/C0/D23/E175/F179/6fc7cc51-dc59-443e-82f0-c46dd0effd7c.jpg,以古書、英日文書、日據時代文獻和地方誌為主。店主人原是攝影工作者，相當注重空間與書的互動關係。近年為了替讀者和書保留更好的閱讀空間而推行會員制，謝絕純粹觀光客的騷擾。店主並在台南另外經營墨林二手書店與城南舊肆兩家舊書店。,南門路71號,120.204963,22.990709,一～日｜12:00 - 20:00,(06)2222909,,,臺南市  中西區,實體書店
貓手 BOOK& SHOP,http://cloud.culture.tw/e_new_upload/cms/image/A0/B0/C0/D24/E152/F24/0427a2cf-8258-48bb-8e34-8ab6bbbac6d4.jpg,"專營日文藝文二手書,天然健康食的輕食,手作工藝品,組合模型.也會不定期開辦講座/課程/展覽等活動,預計2019年會增設中文創意書籍(新書)專櫃。",大勇路68號2樓,120.281814,22.620168,二～日｜12:00 - 19:00，一休,(07)5214388,,,高雄市  鹽埕區,實體書店
書店喫茶一二三亭,http://cloud.culture.tw/e_new_upload/cms/image/A0/B0/C0/D24/E152/F85/2370f28a-b107-417c-add7-70a12e7ac8c6.jpg,原為日治時期著名料亭，店主接手後仍保留建築原味，營造日式氛圍。店內有許多古本與日文書，書籍多屬文史哲領域，也販售日系文具小物與餐飲，並且定期舉辦在地文史講座與「新濱亭一箱古本市」市集活動。,鼓元街4號2樓,120.286733,22.656247,一～日｜10:00 - 18:00,(07)5310330,,,高雄市  鼓山區,實體書店
無關實驗書店,http://cloud.culture.tw/e_new_upload/cms/image/A0/B0/C0/D4/E171/F713/08e6fce9-c26c-4d4c-b87e-2a7e7618cecf.jpg,"這裡無關書，關於找到自我
無關販售，關於新生活嘗試
無關品味，關於叛逆主張
一群跟書店無關的人，想要找出還有什麼新的可能性
無關＿＿＿＿＿＿，關於＿＿＿＿＿＿ 
由你來創造
（由於書店內選書都較具議題性，且有許多限制級的成人書籍；我們希望未來能再深入地探討成人議題，包括心理、慾望、藝術、意識形態等等，也希望店內書籍是可以供給大家自由翻閱的，因此「18歲以下禁入」。）

圖片擷取自無關臉書粉絲專頁

本資料由文化部委託台灣閱讀推進協會建構，建立日期為107年6月4日。",大義街2-1號C7-6倉庫,120.281814,22.620168,週二至週四14:00-20:00，週五至週日11:00-20:00,(07)5318813,,,高雄市  鹽埕區,實體書店
慶芳書局,http://cloud.culture.tw/e_new_upload/cms/image/A0/B0/C0/D24/E152/F442/6b4e7200-4ee6-401b-9a88-e03a8d907643.jpg,是高雄鹽埕地區的老字號書店。早期書局銷售各種書籍，並曾出版《可愛的仇人》等具鄉土色彩的台灣通俗文學，1966年之後改為專賣教科書。多年來，慶芳書局每天的營業皆有「午休」時段，而這是店主人自己看書的時間。,五福四路180號2樓,120.281814,22.620168,一～六｜10:00 - 12:30 / 14:30 - 21:30，日休,(07)5513118，(07)5515056,,,高雄市  鹽埕區,實體書店
幸福書房(有限公司),http://cloud.culture.tw/e_new_upload/cms/image/A0/B0/C0/D24/E141/F553/b122dd44-1d29-4451-8d9b-8508a1194e15.jpg,一間福音書房，擁有各類福音書籍和禮品、生活用品、文創小物，另販桌遊，使家庭、親子間互動，更簡單、更緊密。無論是生活小物、書籍繪本或手作禮品，亦可點一杯手沖咖啡，像回到家一樣。,英明路200號,120.293381,22.616847,平日｜09:00 - 21:00，六｜09:00 - 19:00，日休,(07)7261601,,,高雄市  苓雅區,實體書店
順順堂,http://cloud.culture.tw/e_new_upload/cms/image/A0/B0/C0/D16/E134/F993/e0569ce0-5724-4b3e-8e33-a42d4b8fb45b.jpg,"順順堂是屏東市第一家日式建築改裝的咖啡廳，老闆將這棟日式建築結構與格局保留，進行改裝與粉刷，融合了咖啡與閱讀的經營主軸，打造「在書店喝咖啡、在咖啡店閱讀」的咖啡館夢想。

圖片擷取自順順堂臉書粉絲專頁

本資料由文化部委託台灣閱讀推進協會建構，建立日期為107年5月16日。",屏東市福建路53號,120.501205,22.67797,週二至週五 11:00-22:00，週六、日 09:30-22:00,(08)7320013,,,屏東縣  屏東市,實體書店
小兔仔書窩,http://cloud.culture.tw/e_new_upload/cms/image/A0/B0/C0/D23/E182/F716/e42fd8f1-1356-46ae-9610-881da90c2850.jpg,於推廣親子共讀，提供多元的繪本，和嬰幼兒友善、安全的空間，鼓勵家長從孩子嬰幼兒時期開始共讀。舉辦針對親子及育兒講座，帶領家長和孩子進入各式深入的議題。,復興路103-2號1F,120.744604,22.000064,一～五｜10:00 - 16:00，六｜10:30 - 18:00，日休,(08)8898909,,,屏東縣  恆春鎮,實體書店
食冊café書店,http://cloud.culture.tw/e_new_upload/cms/image/A0/B0/C0/D13/E182/F819/97d7f667-6283-4709-9e04-237f8cc2870b.jpg,"食冊，即是結合生理跟心靈的糧食，三個青年人來台東合創的綜合書店，也是提供身心靈養分的一家店。進來點一杯好咖啡、來一個剛剛出爐的麵包，輕聲交談或是看一本書、打開筆電上網工作，台東燥熱的陽光被擋在美麗的門窗外面；上去二樓是兩間精緻舒適的客房、一小間客廳。食冊為邀請藝文作者來台東演講、新書發表，免費提供住宿。不想被打擾自己設定的生活步調，也要讓來者感受到食冊這家結合書店、烘焙坊、營養輕食、咖啡廳等多功能的空間。

圖片擷取自食冊café書店臉書粉絲專頁

本資料由文化部委託台灣閱讀推進協會建構，建立日期為107年6月13日。",洛陽街265號,121.146907,22.752472,週三至週日10:00-22:00,(08)9347616,,,臺東縣  台東市,實體書店
眺港二手書店,http://cloud.culture.tw/e_new_upload/cms/image/A0/B0/C0/D16/E123/F457/b305ee94-e460-4246-a87a-87a5040f4854.jpg,"成功鎮新港教會會館1932年成立至今，是東部少見的兩層樓日式建築，列台東縣歷史建物。
老建築目前由台東縣心驛耕新關懷協會經營，營運團隊隨即以「陪伴當地成長」為出發點，不斷思考活化再利用的可能性。老屋本身猶如成功鎮政治、經濟、醫療和宗教發展史的縮影，因此，團隊在2016年將它打造為歷史故事館，主要對附近學生及觀光客介紹以建物為核心的在地史，更與台東晃晃二手書店及成功商水圖書館展開合作，讓老屋擁有了第五度的新身分──眺港二手書店，不只讓殘破不堪的老屋再創新生命，更期盼它能成為凝聚社區的共讀站。

圖片擷取自心驛耕新－新港教會歷史建築夢想計畫臉書粉絲專頁

本資料由文化部委託台灣閱讀推進協會建構，建立日期為107年5月16日。",台東縣成功鎮中山東路59號,121.365598,23.126152,週二、三 11:00-17:30，週四 11:00-18:00，週五 11:00-20:00，週六 11:00-21:00，週日 13:00-17:30,(08)9851074,sygs19320601@gmail.com,,臺東縣  成功鎮,實體書店
池上書局,http://cloud.culture.tw/e_new_upload/cms/image/A0/B0/C0/D12/E182/F966/472daa5f-c95c-4210-a45b-384e2e772967.jpg,"池上書局為鄉內成立最早及唯一之實體書店，目前為第三代經營。從1955年草創成立至今超過一甲子的歲月，嘉惠了無數的莘莘學子也是在地鄉民兒時求學時的共同記憶。

圖片擷取自池上書局臉書粉絲專頁

本資料由文化部委託台灣閱讀推進協會建構，建立日期為107年6月12日。",中山路222號,121.199670,23.11461,09:00-22:00,(08)9862046,chishangbooks@gmail.com,,臺東縣  池上鄉,實體書店
無論如河獨立書店,http://cloud.culture.tw/e_new_upload/cms/image/A0/B0/C0/D16/E154/F473/78e81716-17c0-452d-9bb8-3efe8ecb897b.jpg,坐落淡水河邊的解憂書店，是四位愛書的護理人員與西班牙歸國藝術家楊侖跨界合作的「藝術 & 療癒」書店。,新北市新北市淡水區中正路5巷26號2樓,121.457044,25.189573,下午12點至9點，每週四公休,02 2625 6694,guttabooks@gmail.com,,新北市  淡水區(淡水鎮),實體書店
純良社書店,http://cloud.culture.tw/e_new_upload/cms/image/A0/B0/C0/D15/E145/F111/f38ba55f-dfa2-47f9-ba2d-ad25d2305f3d.jpg,純良社是一家社區書店，希望成為社區裡買書找書聊書的據點。,10056台北市金山南路一段89巷8號1樓,121.507818,25.039382,周二至周日11:00-20:00(周一店休),02-2397-9865,purebookstw@gmail.com,,臺北市  中正區,實體書店
戲台書店,http://cloud.culture.tw/e_new_upload/cms/image/A0/B0/C0/D19/E124/F835/c565403b-dac6-4d30-bc02-2480cd165f4a.jpg,"書店紅磚牆為兩廳院原本構造，也是劇場側台常見的紅磚牆面。
劇場人常用的瑞克箱，搖身變成書店桌檯展櫃。 隨處可見的劇場花天帕燈，在書店轉換成檯燈。
書店提供閱讀者隨處可坐下的閱讀椅，椅背椅面適用國家戲劇院拆卸下來的舞台地板奧勒岡松木。
劇場人的書店，裡面有劇場人的專業書籍與培養創意視野的非專業書籍，打破傳統書籍分類模式，創新『人生劇場四大象限』分類法。 除了展售書之外，還有很多劇場人使用的各種萬用工具。",台北市中山南路21-1號 國家戲劇院 愛國東路側,121.507818,25.039382,09:00-22:00,02-23971920,ask@theatercafe.tw,,臺北市  中正區,實體書店
親子天下Club,http://cloud.culture.tw/e_new_upload/cms/image/A0/B0/C0/D10/E142/F386/2cdea1b5-453b-4b82-9748-65f69dc011b1.jpg,"「親子天下Club」成立於2019年7月
是一個共享、共玩、共學的多功能體驗空間

我們期待
您和孩子在這裡快樂學習、展現創意、實現夢想
我們歡迎
各機構團體在這裡自在交流、共同成長

在親子天下Club有大大小小的活動正在發生
透過體驗、探索，邀您一同Share&Enjoy！",建國北路一段126號5樓,121.524686,25.072631,週二至週六 09:30AM-17:30PM,02-25080580,cpclub@cw.com.tw,,臺北市  中山區,實體書店
櫞椛文庫,http://cloud.culture.tw/h_upload_ccacloud/cms/image/A0/B0/C0/D27/E193/F711/ecce2b60-b77c-42c2-be6f-1e2754f3efef.JPG,一間隱身於中山區巷弄內的「計時制」私設圖書館。我們由衷地希望來到這裡的人們，都能夠閱讀各種形式的美。,中山區中山北路一段56巷2之1號2樓,121.524686,25.072631,平日:13:00-21:00  六日 14:00-18:00,02-25221795,kulida@gmail.com,,臺北市  中山區,實體書店
微貳獨冊,http://cloud.culture.tw/e_new_upload/cms/image/A0/B0/C0/D19/E154/F44/6b16b55f-96f8-4a53-acf3-5519d3cad4ca.png,"文字圖像，是人們一直以來用來紀錄歷史點滴的媒介；書籍，這些圖文媒介的集結匯流。回想學生時候，智慧手機平板不普及的那些從前，大家手上翻閱著的是各樣式的，充滿著語文、哲理、故事及青春的書籍，豐富了多數人的當時。

唯一獨二，讓人拾起書本的觸感。",光復南路346巷56號,121.542957,25.034544,11:00～20:00，週二休息，其他依活動時間而定,02-27769926,orlando@waytoread.com.tw,,臺北市  大安區,實體書店
RE BOOK STORE 閱二手書店,http://cloud.culture.tw/e_new_upload/cms/image/A0/B0/C0/D9/E124/F97/6fe244bf-3b41-4875-a740-4f64bb607b1c.jpg,"公館地區最大二手書店，佔地117坪，藏書破11.6萬本
平均一本書$50
單月有主題書展
單季有裝置藝術展",羅斯福路三段301號B1,121.542957,25.034544,12:30-20:00,0223681268,d.liu@lhcmkt.com.tw,,臺北市  大安區,實體書店
竹風書苑（公館店）,http://cloud.culture.tw/e_new_upload/cms/image/A0/B0/C0/D20/E146/F98/c9abb9e4-e8a0-488a-80d3-25e339b3d508.JPG,https://www.facebook.com/bookfinder119/?ref=page_internal,羅斯福路三段283巷21弄6號一樓,121.542957,25.034544,每日12:30~20:30,0223686808,,,臺北市  大安區,實體書店
竹風書苑（南港店）,http://cloud.culture.tw/e_new_upload/cms/image/A0/B0/C0/D20/E150/F804/2d0cfc40-daf7-4b87-9700-30f3da07b8f3.JPG,https://www.facebook.com/bookfinder119/?ref=page_internal,研究院路二段168號1樓,121.592271,25.054501,週一至週五11:00-19:00,0227830271,,,臺北市  南港區,實體書店
愛閱二手書坊,http://cloud.culture.tw/e_new_upload/cms/image/A0/B0/C0/D15/E161/F305/731c980e-8ee1-4877-a573-410126317fb1.JPG,店主是退化性脊椎損傷患者，曾為找工作所苦，並體認到特殊族群在社會上被接受還有困難，因而成立一間支持身心障礙人士就業的二手書店。店內除二手書籍外，還販售CD、黑膠唱片、各式生活用品及古董、畫作等。,106 臺北市臺北市大安區和平東路二段14號B1,121.542957,25.034544,一～日｜12:00 - 22:00,0233653226,,,臺北市  大安區,實體書店
瓦當人文書屋,http://cloud.culture.tw/e_new_upload/cms/image/A0/B0/C0/D9/E132/F251/719e40a2-7505-49b9-a8ac-af8eca96c535.jpg,"❤交流：走進來的你們，是書店最美的風景。
❤分享：相契的剎那，世界是多麼美好啊。",大林路104號,121.044975,24.774921,週三~日13:00-20:00 週一二公休,03-5952625／0912-279505,ahwa0827@hotmail.com,,新竹縣  竹東鎮,實體書店
山豬窩文創,http://cloud.culture.tw/e_new_upload/cms/image/A0/B0/C0/D10/E126/F282/7d9c8e05-c097-4f9b-ba56-83eefe3f51f2.png,"桃園鐵支路邊的小書店,以台灣漫畫及繪本為主題選書,兼售二手書.
喝杯台灣原生茶,閱讀台灣漫畫,是一家適合晃悠的小店.",國聖一街191號,121.298601,25.017472,10:00~20:00,033700126,w_s91@yahoo.com.tw,,桃園市  桃園區,實體書店
筆耕小書店,http://cloud.culture.tw/e_new_upload/cms/image/A0/B0/C0/D1/E161/F926/e8ebb62c-94f7-40af-b8b2-afe660e6f071.jpg,"筆耕小書店是竹科生活圈唯一獨立書店，也是為青少年和新竹地區而開的書店。我們認為，唯有當一個人願意透過自己的眼光去探索及思考，改變才會發生，才能找到自己理解世界的管道。我們希望青少年在忙碌的課程之餘能找到一處沉浸自己的場所，自由讀書，自主選書。
我們的願景是，成為親子能安心舒適選擇好書、閱讀好書、討論好書的所在，成為新竹居民能共樂的人文閱讀綠洲。",東區光復路一段485巷6弄8號,120.969102,24.806942,週二至五13:30-21:30；週六10:30-18:30 （週日、一公休）,035790790,farmingwords68@gmail.com,,新竹市  新竹市,實體書店
MR Book Cafe 月讀。書咖,http://cloud.culture.tw/e_new_upload/cms/image/A0/B0/C0/D19/E156/F656/c78b923f-adfc-42c0-93f5-230ea56ad2ee.JPG,用消費，支持理想的生活。提供義式咖啡、限定單品、無咖啡因飲品，以及新書販售。不定期新書分享、讀影會、讀書會、場地租借。,竹北市成功十街105號,121.023094,24.821766,週二～周六　13:00-21:00,036670921,mrbookcafe@gmail.com,,新竹縣  竹北市,實體書店
竹風書苑（佛光店）,http://cloud.culture.tw/e_new_upload/cms/image/A0/B0/C0/D20/E146/F581/6e88731c-c927-4709-8d1f-2410a85c7f82.JPG,https://www.facebook.com/bookfinder119/?ref=page_internal,林尾路160佛光大學雲起樓115室,121.766666,24.816666,週一至週五10:00-18:00（配合佛光大學行事曆）,039871000#11384,,,宜蘭縣  礁溪鄉,實體書店
艦隊街書店,http://cloud.culture.tw/e_new_upload/cms/image/A0/B0/C0/D15/E146/F329/0b3440ff-ca70-44f3-a1fb-22593f579934.jpg,在艦隊街咖啡二樓，販售策展選書——有視覺精采的外文主題雜誌，探究現世的報導文學。與日常息息相關的飲食生活，關心世界脈動的社會經濟。有深度旅遊書讓你探索於各個城市；提供登山健行，及動植物圖鑑等書籍提醒你往戶外持續探索。,台中市中區民族路24號,120.649709,24.149768,每天8:00-19:00,0422240268,fleet.st24@gmail.com,,臺中市  中區,實體書店
晨熹社繪本書店,http://cloud.culture.tw/e_new_upload/cms/image/A0/B0/C0/D10/E170/F644/8c96de06-36fb-4237-a75b-e56f05775fe1.jpg,晨熹社是一家繪本主題書店，以「家」為起點選書選物，來晨熹社讀書就像「回家讀書」，推廣各種年齡層的繪本閱讀，繪本不僅僅是兒童讀物，讀者可以藉由書店的推廣看到繪本多元豐富的藝術和文學價值，以專業選書角度引介各種繪本和相關出版刊物，店內提供繪本選書、咖啡點心和活動講座等服務。,博館路234號,120.664047,24.150957,周一至周四 13:00~19:00                     周五13:00~21:00                     周六10:00~21:00                     周日10:00~19:00,0423150001,asahikari.books@gmail.com,,臺中市  西區,實體書店
籃城書房 REST Book & Bed,http://cloud.culture.tw/e_new_upload/cms/image/A0/B0/C0/D21/E194/F65/62722539-1649-4bc0-a3bb-d3fa9fe71397.JPG,"我們不只是一家書店，我們分享空間和時間。我們在這個空間中相遇交會，在這個空間中讀書、饗宴、聚會、交流、休憩，於是我們分享了生命中一段段愉悅的時光，在歲月的流逝中一起成長和變老。回顧駐足在書房的時刻，每一個感受都會成為美好的回憶。

Apart from books, this bookstore also shares pleasant moments. We read books, enjoy delicacies, get together, chat and relax in this space. Phases of our lives are shared and connected here, and we grow as time goes by. Looking back, you will find that all the feelings in this place have fermented into delightful memories.",籃城五巷四號,120.959637,23.98577,日-四 10:00-19:00； 五-六 10:00-21:00,0492913258,service@restbb.com,,南投縣  埔里鎮,實體書店
小房子書舖,http://cloud.culture.tw/e_new_upload/cms/image/A0/B0/C0/D24/E150/F805/6a11ee0d-22ff-4172-a1f3-f7172a7e7e93.jpg,「閱讀在生活，生活即閱讀。」小房子書舖是一間由非營利組織所經營的書店，以繪本及兒少文學的販售為主，深信圖畫及文字是最溫柔而堅定的力量，可以改變大人和孩子。書舖管家們致力於推動繪本及兒少文學閱讀，也用力的支持在這塊土地上耕耘的台灣原創作品，在多變的時代中依然故我，堅守著分享閱讀美好的初衷！,文橫二路115巷15號,120.293381,22.616847,每周三到日，10:00-18:00,07-3380887,doslakaohsiung@gmail.com,,高雄市  苓雅區,實體書店
竹風書苑,http://cloud.culture.tw/e_new_upload/cms/image/A0/B0/C0/D24/E156/F168/6be9812d-a670-4c0a-80f9-f75a228b609f.jpg,位於淡江大學側門幾步之遙的地下書店，專營文史藝術專業圖書與文學小說，亦提供簡體文史學術書徵訂服務。店內藏書非常豐富，有許多珍稀的文史書籍，固定舉辦文史學術講論會。,水源街二段74巷8號B1,121.457044,25.189573,二、四、六｜12:00 -19:00,0906177090,,,新北市  淡水區(淡水鎮),實體書店
小小森林生活聚場,http://cloud.culture.tw/e_new_upload/cms/image/A0/B0/C0/D23/E172/F158/dda1bd4a-6497-458e-9955-6657e752cf85.jpg,小小森林是一間以森林為主題選書的繪本書店，是一處讓孩子們盡情閱讀與聚會的場域。並開設以繪本為主題的故事工作坊、結合美學繪本、日文繪本、食育繪本為課程設計的手作工作坊，期望牽起更多有意思的小事情，在小小森林中醞釀、運轉！,大墩南路399號1樓,120.616507,24.116220,平日｜13:00 - 17:00，例假日休,0911587010,,,臺中市  南屯區,實體書店
博青睞,http://cloud.culture.tw/e_new_upload/cms/image/A0/B0/C0/D2/E171/F856/abc6539c-34cd-4d52-a7ed-b295ee257e25.gif,位於板橋，店裡多為藝文哲社類的書，有八成皆是店主人多年來憑著一股對書的喜愛累積而來，由於實在太大量無處擺放，索性在退休後一圓年輕時開書店的夢想。店裡除了豐富的藏書外，兼有茶壺茶葉分享展售。,中正路115號2樓,121.45416,25.010349,一～日｜11:00 - 21:00，三休,0912503298,,,新北市  板橋區(板橋市),實體書店
楓林書屋,http://cloud.culture.tw/e_new_upload/cms/image/A0/B0/C0/D2/E172/F210/abc6539c-34cd-4d52-a7ed-b295ee257e25.gif,位於彰化縣社頭鄉，店主平時在農地活動，亦細細耕耘店內的文學小説。店主喜愛分享農田軼事，以及平日閲讀的賞析。由於店處偏遠，來客有限，平日書店開放以預約制為主。,山湖村清水岩路39號,120.60891,23.884604,採預約參觀,0916682299,,,彰化縣  社頭鄉,實體書店
水石有機書店,http://cloud.culture.tw/e_new_upload/cms/image/A0/B0/C0/D14/E132/F5/49252192-5bd9-4d9d-88d9-9c5cf1e6a0d2.jpg,"透過『書本』的內容作為旅行的元素，導引旅客能透過書本挖掘並認識自己在旅行的故事，並透過旅行文學將故事與體驗心得結合，打造一個複合式旅行文學書店。
書店以交換書方式經營，並提供免費的閱讀。二樓則提供背包客住宿。


圖片擷取自水石有機書店臉書粉絲專頁

本資料由文化部委託台灣閱讀推進協會建構，建立日期為107年5月14日。",新竹縣新埔鎮上樟樹路一段162號,121.036341,24.844961,08:00-17:00,0921-743-789,benlutw762402@gmail.com,,新竹縣  新埔鎮,實體書店
日榮本屋,http://cloud.culture.tw/e_new_upload/cms/image/A0/B0/C0/D2/E172/F995/abc6539c-34cd-4d52-a7ed-b295ee257e25.gif,日榮本屋位於苗栗市，近苗栗火車站，書店為一棟六十年以上的老屋，內部保持舊時代的裝潢和格局。複合式經營的獨立書店在苗栗較少見，希望能當苗栗人的「廳下」和「間房」（客語客廳房間之意），讓進來的人可以獨處閱讀，也可以交流分享。,360 苗栗縣苗栗市中山路129號,120.824294,24.565598,週三至日｜13:00 - 18:00 一二店休,0921322787,,,苗栗縣  苗栗市,實體書店
萬金喵二手書店,http://cloud.culture.tw/e_new_upload/cms/image/A0/B0/C0/D23/E156/F319/29caeba4-3978-484b-8575-362b22c8b3a0.jpg,從萬大路遷移到目前的東園街，不變的是店內豐富的藏書與五位貓咪店長。除了圖書、CD、DVD銷售與二手書收購，店內亦特別售有貓咪相關雜貨。店主白天另有工作，因此書店只在夜間與週末開門。,東園街66巷59號,121.506498,25.045226,一～五｜18:00 - 21:00，六｜15:00 - 21:00，日休,0928255107,,,臺北市  萬華區,實體書店
都蘭小洋房書店,http://cloud.culture.tw/e_new_upload/cms/image/A0/B0/C0/D12/E181/F471/4a28f604-d1dd-43ee-a5a6-bce9fc55cb2e.jpg,"是一間誠實書店。
是一間一人書店。
是一間很不像書店的書店。

誠實書店：
位於台東都蘭海邊，有藍天、有海洋，但很難生存。因此好好生活變得很重要，有工作會去接，有陽光會去海邊。愛書人可以自己選書買書，投錢找錢。

二手書：
書籍需要被閱讀才有其意義，二手書透過不同人的閱讀方顯其價值，因此，這裡沒有大量新書（太貴買不起），但有我喜歡的好書。

蓋碗茶：
用在地嚴選好茶，紅烏龍、陳年老茶。

海廢再生：
住在海邊有很多時間看海，將海邊的廢物加工，或二手不用的舊物改造，讓物品有新的生命。

圖片擷取自都蘭小洋房書店 Casa Yang Books & Art臉書粉絲專頁

本資料由文化部委託台灣閱讀推進協會建構，建立日期為107年6月12日。",都蘭村都蘭225-26號,121.285524,23.069172,週三至週六11:00-16:00,0928336569,yangscasa@gmail.com,士林區,臺東縣  東河鄉,實體書店
練習曲書店,http://cloud.culture.tw/e_new_upload/cms/image/A0/B0/C0/D14/E152/F793/b18b4af8-f626-49b4-9796-d82406fbd224.jpg,"一位熱血棒球教練與好友，一同在花蓮靠山面海的新城小村莊開設的書店，提供旅人、學生及社區居民免費借閱書籍的不賣書的書店，也歡迎大家一起來練習人生大小事。

圖片擷取自練習曲書店臉書粉絲專頁

本資料由文化部委託台灣閱讀推進協會建構，建立日期為107年6月14日。",新城村信義路252號,121.60438,24.032707,週一至週五09:00-20:00，週六、日09:00-22:00,0929-102-286,,,花蓮縣  新城鄉,實體書店
Art Studio風向空間,http://cloud.culture.tw/e_new_upload/cms/image/A0/B0/C0/D14/E162/F267/5a4a3b27-4de0-4587-aaee-3eff7b83786d.jpg,"展覽×手作×教學×二手書的風向空間
輕鬆的逛逛&找個位子來份下午茶
度過美好的下午時光
晚上這也是個畫室
藝術交流和教學.分享空間
假日也有不定時的二手膨風小市集

圖片擷取自Art Studio風向空間臉書粉絲專頁

本資料由文化部委託台灣閱讀推進協會建構，建立日期為107年6月14日。",重慶街16號,119.586158,23.566121,週二至週日13:00-18:00,0932-008-486,,,澎湖縣  馬公市,實體書店
SEAMi 望見書間,http://cloud.culture.tw/e_new_upload/cms/image/A0/B0/C0/D9/E172/F95/868bc80e-182f-495a-afa3-0fbab841ee4d.jpg,"「望見書間」(SEAMi, SouthEastAsian Migrant Inspired)是一間有別於模仿歐美日的藝文書店。我們以「分享」、「相互理解」與「多元美學」等三個理念，來打造一個文創平台。在這個品牌概念下創造一個友善移民工的藝文空間，提供「分享式書店服務」、「社群媒體近用服務」和「個人出版服務」等。

這不只是一間書店，更是一個在台灣落實的文化行動，讓多元、平等、想像力都能散溢到台灣每個角落。


圖片擷取自政大之聲實習廣播電台網站

本資料由文化部委託台灣閱讀推進協會建構，建立日期為107年5月9日。",桃園市桃園區延平路17號2樓,121.298601,25.017472,週二至週日：13:00-21:00,0933 197 171,mi@seami.asia,,桃園市  桃園區,實體書店
小高的店,http://cloud.culture.tw/e_new_upload/cms/image/A0/B0/C0/D23/E152/F405/d203d3af-08ad-41f2-95e0-b8e5c2ecefdb.jpg,可說是公館地區舊書店的異類，店內書籍多為50、60年代的舊書，新書則以店主認定的好書才收購。店主屬半路出家的舊書經營者，而因為貨源問題，當年要開舊書店其實有相當的挑戰，不過卻也因此，小高的店成為研究者尋書的好地方。今位在三峽的「文書苑」也是他們的分店。,羅斯福路3段293號B1,121.542957,25.034544,一～五｜17:00 - 22:00，例假日休,0933122139,,,臺北市  大安區,實體書店
紅氣球書屋,http://cloud.culture.tw/e_new_upload/cms/image/A0/B0/C0/D5/E141/F365/6cddc714-f214-4833-b03d-15df7fb68c91.jpg,"一對原本打算到恆春半島一圓民宿夢的年輕夫妻，卻發現在恆春最大的遺憾是「找不到書店」，因此愛書的兩人最後決定自己開一間書店，讓恆春的居民和遊客都可以有個舒服的閱讀環境，位於台灣最南端的紅氣球書屋就這麼誕生了。
在這間書店裡，有著適合拿著到海邊安靜地閱讀的文學，也能找到屬於恆春本地文化的藏書，更多的，是他們兩人覺得應該被分享的好書。

圖片擷取自紅氣球書屋 Le BallonRouge臉書粉絲專頁

本資料由文化部委託台灣閱讀推進協會建構，建立日期為107年7月5日。",北門路110巷86號,120.744604,22.000064,13:30-21:30，每週日10:00-18:00，每週三公休（實際情形請以店家公告為主）,0934 149 657,,,屏東縣  恆春鎮,實體書店
樂伯二手書店,http://cloud.culture.tw/e_new_upload/cms/image/A0/B0/C0/D24/E160/F289/6ea68160-b998-432f-abb1-b381437b5dd7.jpg,是九份地區頗具知名度的二手書店。店主樂伯以採擷地方人文歷史為樂，並不停撰寫地方人文與歷史故事。店內書種以文學、歷史、哲學、藝術為主，一、二樓則以熱、冷門區分。而其特殊的收書規則：一、不與親朋好友收書，二、不在店內收書，相當有愛書人的風範。,佛堂巷31號,121.822098,25.103052,一～日｜12:00 - 16:00，三休、不定期休,0958571502,,,新北市  瑞芳區(瑞芳鎮),實體書店
恬野書,http://cloud.culture.tw/e_new_upload/cms/image/A0/B0/C0/D6/E183/F759/10ea4240-3a20-487b-8077-f922c25cf445.jpg,恬野書是一間以環境土地、身心靈以及社會人文為主題的獨立書店，除了選書、講座相應以上主題之外，裝潢時有不少「環境友善」的實踐，包括：複層玻璃、隔熱材、雨水蒐集、天然塗料、舊物再利用、FSC認證的台灣層板；日常營運亦以「環境友善」為目標：使用再生衛生紙、「袋袋相傳」、低衝擊清潔劑以及供應成分天然單純的點心/飲料，並販售玻璃與不鏽鋼吸管、布衛生棉、再生紙筆記本。,信義路二段32號,121.542957,25.034544,星期二-星期六，12:00-7:00pm（每月可能稍有不同，以粉絲頁公告為主）,0958873015,joywildbook@gmail.com,,臺北市  大安區,實體書店
孩好書屋,http://cloud.culture.tw/e_new_upload/cms/image/A0/B0/C0/D5/E192/F991/0c72dec0-6b16-45cc-8028-6e0bf64a18c9.png,"我們夫妻皆是從外地移居花蓮的新住民，先生來自台中，太太來自新店，兩人因共同參與2009年搶救七星潭行動相遇、相戀， 2014年移籍、三人1貓成家，在花蓮落地生根，希望能給孩子們一個朝向美好的生活環境，於是共同創立「孩好書屋」，期望能透過友善環境書籍、雜貨、餐飲的流通，淨灘、藝文活動的辦理，作為推廣環境意識、多元文化教育價值的平台。

位處台灣東部地區的花蓮，常被稱為台灣的「後山」，暗指相對落後於台灣其他區域的發展，殊不知花蓮具自然環境資源豐富、族群文化多樣的特性，發展出與台灣其他區域迥然不同的文化底蘊，亟需進行東台灣研究，推廣自由、平等、尊重差異、追求公平正義的多元文化價值；且台灣四面環海，國人卻普遍缺乏親近海的經驗與相關教育機會，過度濫用海洋資源、輕忽海洋廢棄物對自然環境、生態系統產生的破壞力，孩好期許能連結花東地區不同社會團體與個人的力量，辦理主題書展、繪本親子共讀、讀書會、紀錄片講座、藝術展演、工作坊、田野調查、淨灘…等相關藝文活動與社會大眾接觸，增加親近海、親近自然環境、理解多元文化的經驗。此外，希望每年發行《孩好，無代誌》年報，紀錄孩好歷年辦理的活動內容、預告來年計畫內容，期望能經營順利、「無代誌」，也希望能無間斷地、透過親子的代間學習與互動，一代一代地傳遞環境意識、海洋保育、尊重多元文化價值的重要性。

我們深信閱讀能影響人的思考，進而改變人的行為，並透過社會實踐保護環境、豐富文化底蘊，孩好期許能發揮社會影響力，留給孩子們更好的自然、人文環境。",水源街79巷18號,121.59184,23.977088,週四～週一，11:00~18:00，週二、週三公休,0965139032,goodforkid2016@gmail.com,花蓮縣政府,花蓮縣  花蓮市,實體書店
富光書店,http://cloud.culture.tw/e_new_upload/cms/image/A0/B0/C0/D23/E174/F912/fecc8a83-dd29-4ab5-bcc6-3cbb2095aa62.jpg,十坪不到的富光書店，見證了台東的興衰歷史，第二代老闆邱桑是從父親手上接手經營，至今已近六十年，雖然早已不再進貨，但仍會泡好茶備好棋盤等待鄰居或好奇的讀者上門來聊天和聽聽老台東的故事，目前佈滿灰塵的書架上，以易經占卜、早期美艷女星雜誌和年曆為主，還有早期的文房四寶、四色牌、甘樂及舅母帖……等復古小物等你來挖寶。,廣東路85號,121.146907,22.752472,平日｜10:30 - 18:30，例假日休,0972507686,,,臺東縣  台東市,實體書店
佔空間 Artqpie Library．本冊圖書館,http://cloud.culture.tw/e_new_upload/cms/image/A0/B0/C0/D14/E135/F990/cdef37dd-e507-499e-9a88-224b79a5ad94.jpg,"位於台中的佔空間ArtQpie成立於2009年，專注於策展、出版及空間企劃等工作，以台灣常見的佔位（occupy）為本，讓閒置的舊空間再次利用，進而提供友善的展覽與閱讀空間，同時也讓藝術走入生活與日常。


圖片擷取自ArtQpie網站

本資料由文化部委託台灣閱讀推進協會建構，建立日期為107年5月14日。",台中市西區中美街135號,120.664047,24.150957,週三至週五 16:00-20:00，週六15:00-20:00，週日15:00-18:00,0982-723-359,ajnasaka@gmail.com,,臺中市  西區,實體書店
借冊所,http://cloud.culture.tw/e_new_upload/cms/image/A0/B0/C0/D13/E180/F838/0f42e1b4-bce9-4ee6-8067-264742ddd0a8.jpg,"一位以流浪方式體驗世界的香港背包客，立志用一生走遍各地。因熱愛臺灣的美好，現暫居池上開設書店與旅人交流，用自己喜歡的方式生活，等待著下一次旅程的到來。
借冊所就是這麼一間不求營利，只是單純地分享一個看書、交流的空間，並在池上與各地旅人交換故事的二手書屋，更是專屬於池上的「夜店」。

圖片擷取自借冊所臉書粉絲專頁

本資料由文化部委託台灣閱讀推進協會建構，建立日期為107年6月13日。",中華路57號,121.199670,23.11461,14:00-22:00（每週二公休）,0983322944,,,臺東縣  池上鄉,實體書店
走走池上,http://cloud.culture.tw/e_new_upload/cms/image/A0/B0/C0/D14/E155/F809/1774f246-ad3a-4e4c-8565-811a0bf0f72d.jpg,"走走池上是工作室，也是一個半開放式空間，歡迎旅人來到這裡，翻閱書籍放慢腳步，品嚐咖啡或飲品，以他鄉的眼光寫下精彩動人的故事，也讓走走池上得以透過旅人的角度，變得更寬廣遼闊，帶來更多的感動與驚喜。

圖片擷取自走走池上臉書粉絲專頁

本資料由文化部委託台灣閱讀推進協會建構，建立日期為107年6月14日。",中山路99號,121.199670,23.11461,14:00-22:00,0986-367-216,dreamabcde@gmail.com,,臺東縣  池上鄉,實體書店
我在二手書店,http://cloud.culture.tw/e_new_upload/cms/image/A0/B0/C0/D16/E143/F616/ae7d3ba8-b680-4a6d-92c2-3a3fc9291812.jpg,"來自澎湖的店主在金門成立了金門首間二手書店「我在」，經營書籍買賣、咖啡點心，並長期徵求打工換宿。

圖片擷取自我在二手書店臉書粉絲專頁

本資料由文化部委託台灣閱讀推進協會建構，建立日期為107年5月16日。",金門縣金城鎮民生路27巷1號,118.320519,24.432689,10:00-21:00，週四公休,0988-426-727,joeyroland1117@gmail.com,,金門縣  金城鎮,實體書店
撥撥橘工作室．本東咖啡,http://cloud.culture.tw/e_new_upload/cms/image/A0/B0/C0/D16/E126/F155/b6b0551c-2b05-4cbf-9c3c-5d4216498a5a.jpg,"撥撥橘，所有故事出發的原點；從一間小小的工作室發展到斜對面的本東畫材咖啡，一步一步的，雖然步伐小卻很踏實。
關於撥撥橘，名字來自於開店前的兩隻小小貓「撥撥」和「小小橘」，屬於品牌的小空間，擁有插畫家李瑾倫完整的繪本、明信片創作以及生活中想和大家分享的點點滴滴，並同時藉由創作的力量關懷動物議題。
關於本東畫材咖啡，就在撥撥橘小店的斜對角四、五步的距離，一樓除了咖啡與茶，還可以享用吳寶春土司三明治所烘烤的喵福三明治、每日不同口味的霜淇淋、戚楓蛋糕、手工餅乾手工果醬。
這家由撥撥橘所延伸出來的小店，二樓有著美麗的玻璃屋頂，裡面是本東筆記本裝訂工房，數十種封面與內頁紙張可供選擇並訂製獨一無二的筆記本，封面與內頁的種類陸續在增加當中。除了裝訂服務，還有許多在歐美日第一線上有趣少見文具與筆記本。

圖片擷取自撥撥橘、本東咖啡與灰灰基地 Chinlun's Things, Bandon Cafe & Huei-Huei臉書粉絲專頁

本資料由文化部委託台灣閱讀推進協會建構，建立日期為107年5月16日。",高雄市新興區民有街71號,120.30607,22.62839,週五至週二 10:00-18:00,撥撥橘(07)2828747，本東咖啡(07)2018566,chinlunsthings@gmail.com,,高雄市  新興區,實體書店
聯經出版台中門市,http://cloud.culture.tw/e_new_upload/cms/image/A0/B0/C0/D20/E203/F252/43550a2a-c4e2-4e84-b675-d9ee6e78aa93.jpg,"聯經出版台中分公司,則成立於1986年7月1日迄今。設有專業人文圖書門市,除了陳列銷售聯經出版品外,也代理銷售國內各大出版公司出版的優質叢 書。門市書籍陳列特色仍以：中外哲思、歷史、文學、藝術音樂與台灣研究等叢書為主；其次輔以財經企管、生活休閒、養生保健、語言學習與優良兒童讀物等，為 一綜合性圖書門市。",崇德路一段198號（省三國小正對面）,120.666303,24.156164,每週一至週五09:00~18:00(逢週六日與國定例假日均公休),（04）2231-2023 轉分機9~13 （或0972-477534）,linking2@ms42.hinet.net,,臺中市  北區,實體書店
